NORAD_CAT_ID,OBJECT_NAME,OBJECT_TYPE,EPOCH,MEAN_MOTION,ECCENTRICITY,INCLINATION,RA_OF_ASC_NODE,ARG_OF_PERICENTER,MEAN_ANOMALY,BSTAR,MEAN_MOTION_DOT,MEAN_MOTION_DDOT,TLE_LINE0,TLE_LINE1,TLE_LINE2,SEMIMAJOR_AXIS,PERIOD,APOGEE,PERIGEE,DECAYED
52272.0,STARLINK-3781,PAYLOAD,2022-11-30 17:00:45,15.08836526,0.0001901,53.219,73.6074,45.4642,314.6505,6.765800000000001e-05,7.89e-06,0.0,0 STARLINK-3781,1 52272U 22041M   22334.70886095  .00000789  00000-0  67658-4 0  9994,2 52272  53.2190  73.6074 0001901  45.4642 314.6505 15.08836526 33962,6917.891,95.438,541.071,538.441,0.0
52272.0,STARLINK-3781,PAYLOAD,2022-12-01 13:40:46,15.08841355,0.000185,53.2179,69.7417,41.2932,318.82,3.9834e-05,3.46e-06,0.0,0 STARLINK-3781,1 52272U 22041M   22335.56997953  .00000346  00000-0  39834-4 0  9999,2 52272  53.2179  69.7417 0001850  41.2932 318.8200 15.08841355 34094,6917.876,95.437,541.021,538.461,0.0
52272.0,STARLINK-3781,PAYLOAD,2022-12-01 16:51:32,15.08846504,0.0001836,53.2178,69.1469,45.6469,314.4674,-5.1967e-05,-1.115e-05,0.0,0 STARLINK-3781,1 52272U 22041M   22335.70245637 -.00001115  00000-0 -51967-4 0  9998,2 52272  53.2178  69.1469 0001836  45.6469 314.4674 15.08846504 35337,6917.861,95.437,540.996,538.455,0.0
52272.0,STARLINK-3781,PAYLOAD,2022-12-01 18:26:55,15.08843516,0.000189,53.2177,68.8495,37.7674,322.3451,7.5391e-05,9.12e-06,0.0,0 STARLINK-3781,1 52272U 22041M   22335.76869846  .00000912  00000-0  75391-4 0  9997,2 52272  53.2177  68.8495 0001890  37.7674 322.3451 15.08843516 34128,6917.87,95.437,541.0419999999998,538.427,0.0
52272.0,STARLINK-3781,PAYLOAD,2022-12-01 23:13:05,15.08832797,0.0001857,53.2178,67.9573,41.3376,318.7756,-7.690800000000002e-07,-3e-06,0.0,0 STARLINK-3781,1 52272U 22041M   22335.96742416 -.00000300  00000-0 -76908-6 0  9992,2 52272  53.2178  67.9573 0001857  41.3376 318.7756 15.08832797 35373,6917.901999999999,95.438,541.052,538.4830000000002,0.0
52272.0,STARLINK-3781,PAYLOAD,2022-12-02 07:10:01,15.08832023,0.0001886,53.2178,66.4706,42.2344,317.8793,8.458e-05,1.058e-05,0.0,0 STARLINK-3781,1 52272U 22041M   22336.29862598  .00001058  00000-0  84580-4 0  9995,2 52272  53.2178  66.4706 0001886  42.2344 317.8793 15.08832023 34206,6917.905,95.438,541.0740000000002,538.465,0.0
52272.0,STARLINK-3781,PAYLOAD,2022-12-02 18:17:42,15.08842839,0.0001953,53.218,64.3892,41.1887,318.9253,0.00017881,2.559e-05,0.0,0 STARLINK-3781,1 52272U 22041M   22336.76230142  .00002559  00000-0  17881-3 0  9997,2 52272  53.2180  64.3892 0001953  41.1887 318.9253 15.08842839 35498,6917.871999999999,95.437,541.0880000000002,538.386,0.0
52272.0,STARLINK-3781,PAYLOAD,2022-12-03 13:22:20,15.08842592,0.0002017,53.2179,60.8206,39.5504,320.5635,0.00012641,1.724e-05,0.0,0 STARLINK-3781,1 52272U 22041M   22337.55718251  .00001724  00000-0  12641-3 0  9999,2 52272  53.2179  60.8206 0002017  39.5504 320.5635 15.08842592 34392,6917.871999999999,95.437,541.133,538.342,0.0
52272.0,STARLINK-3781,PAYLOAD,2022-12-03 14:57:43,15.08841313,0.0002031,53.2178,60.5233,40.4371,319.6772,0.00010872,1.443e-05,0.0,0 STARLINK-3781,1 52272U 22041M   22337.62342330  .00001443  00000-0  10872-3 0  9990,2 52272  53.2178  60.5233 0002031  40.4371 319.6772 15.08841313 35625,6917.876,95.437,541.146,538.336,0.0
52272.0,STARLINK-3781,PAYLOAD,2022-12-04 11:37:44,15.08846937,0.0002051,53.2188,56.6587,41.7431,318.3718,0.00011951,1.615e-05,0.0,0 STARLINK-3781,1 52272U 22041M   22338.48454252  .00001615  00000-0  11951-3 0  9992,2 52272  53.2188  56.6587 0002051  41.7431 318.3718 15.08846937 34539,6917.859,95.437,541.143,538.305,0.0
52272.0,STARLINK-3781,PAYLOAD,2022-12-04 16:23:54,15.08841299,0.0002158,53.2176,55.7669,34.2953,325.8178,0.00010703,1.416e-05,0.0,0 STARLINK-3781,1 52272U 22041M   22338.68326600  .00001416  00000-0  10703-3 0  9992,2 52272  53.2176  55.7669 0002158  34.2953 325.8178 15.08841299 35788,6917.876,95.437,541.234,538.249,0.0
52272.0,STARLINK-3781,PAYLOAD,2022-12-05 11:28:31,15.08851926,0.0002053,53.2193,52.1986,35.9037,324.2093,0.00022253,3.256e-05,0.0,0 STARLINK-3781,1 52272U 22041M   22339.47814015  .00003256  00000-0  22253-3 0  9999,2 52272  53.2193  52.1986 0002053  35.9037 324.2093 15.08851926 34680,6917.844,95.437,541.129,538.289,0.0
52272.0,STARLINK-3781,PAYLOAD,2022-12-06 11:19:18,15.08836095,0.0002163,53.2176,47.7374,35.9764,324.1373,-9.0858e-05,-1.734e-05,0.0,0 STARLINK-3781,1 52272U 22041M   22340.47174390 -.00001734  00000-0 -90858-4 0  9994,2 52272  53.2176  47.7374 0002163  35.9764 324.1373 15.08836095 36054,6917.892,95.438,541.254,538.261,0.0
52272.0,STARLINK-3781,PAYLOAD,2022-12-06 16:05:28,15.08837882,0.0002126,53.2183,46.8459,35.1223,324.9909,-5.7338e-05,-1.201e-05,0.0,0 STARLINK-3781,1 52272U 22041M   22340.67046372 -.00001201  00000-0 -57338-4 0  9999,2 52272  53.2183  46.8459 0002126  35.1223 324.9909 15.08837882 34862,6917.887,95.438,541.2230000000002,538.281,0.0
52272.0,STARLINK-3781,PAYLOAD,2022-12-07 12:45:28,15.08837338,0.0002169,53.2184,42.9809,34.5617,325.5516,-0.00011169,-2.065e-05,0.0,0 STARLINK-3781,1 52272U 22041M   22341.53158478 -.00002065  00000-0 -11169-3 0  9996,2 52272  53.2184  42.9809 0002169  34.5617 325.5516 15.08837338 36214,6917.889,95.438,541.254,538.253,0.0
52272.0,STARLINK-3781,PAYLOAD,2022-12-07 14:20:51,15.08839038,0.0002162,53.2181,42.6832,34.3114,325.8017,-6.653e-05,-1.347e-05,0.0,0 STARLINK-3781,1 52272U 22041M   22341.59782388 -.00001347  00000-0 -66530-4 0  9990,2 52272  53.2181  42.6832 0002162  34.3114 325.8017 15.08839038 35001,6917.8830000000025,95.438,541.244,538.253,0.0
52272.0,STARLINK-3781,PAYLOAD,2022-12-08 04:39:19,15.08843551,0.0002088,53.2183,40.0071,30.7788,329.3326,0.00017148,2.442e-05,0.0,0 STARLINK-3781,1 52272U 22041M   22342.19398090  .00002442  00000-0  17148-3 0  9995,2 52272  53.2183  40.0071 0002088  30.7788 329.3326 15.08843551 36316,6917.87,95.437,541.179,538.29,0.0
52272.0,STARLINK-3781,PAYLOAD,2022-12-08 12:36:15,15.08849331,0.0002146,53.2183,38.5205,34.9732,325.1401,0.00024705,3.647e-05,0.0,0 STARLINK-3781,1 52272U 22041M   22342.52517771  .00003647  00000-0  24705-3 0  9996,2 52272  53.2183  38.5205 0002146  34.9732 325.1401 15.08849331 35147,6917.852,95.437,541.201,538.232,0.0
52272.0,STARLINK-3781,PAYLOAD,2022-12-09 04:30:06,15.08846288,0.0002171,53.2189,35.5497,51.8017,308.317,0.00011024,1.467e-05,0.0,0 STARLINK-3781,1 52272U 22041M   22343.18757872  .00001467  00000-0  11024-3 0  9995,2 52272  53.2189  35.5497 0002171  51.8017 308.3170 15.08846288 35240,6917.861,95.437,541.2280000000002,538.224,0.0
52272.0,STARLINK-3781,PAYLOAD,2022-12-10 10:42:27,15.08835726,0.0002433,53.2184,29.8997,38.6986,321.418,0.00021935,3.204e-05,0.0,0 STARLINK-3781,1 52272U 22041M   22344.44615402  .00003204  00000-0  21935-3 0  9990,2 52272  53.2184  29.8997 0002433  38.6986 321.4180 15.08835726 36653,6917.893,95.438,541.442,538.075,0.0
52272.0,STARLINK-3781,PAYLOAD,2022-12-10 15:28:36,15.08841644,0.0002346,53.2184,29.0081,43.9768,316.141,9.9263e-05,1.292e-05,0.0,0 STARLINK-3781,1 52272U 22041M   22344.64487124  .00001292  00000-0  99263-4 0  9995,2 52272  53.2184  29.0081 0002346  43.9768 316.1410 15.08841644 35460,6917.875,95.437,541.363,538.117,0.0
52272.0,STARLINK-3781,PAYLOAD,2022-12-11 12:08:37,15.08844589,0.0002688,53.218,25.1412,36.4553,323.6622,0.00015454,2.172e-05,0.0,0 STARLINK-3781,1 52272U 22041M   22345.50599238  .00002172  00000-0  15454-3 0  9998,2 52272  53.2180  25.1412 0002688  36.4553 323.6622 15.08844589 35592,6917.866,95.437,541.591,537.872,0.0
52272.0,STARLINK-3781,PAYLOAD,2022-12-12 11:59:24,15.08839484,0.0002703,53.2181,20.6807,36.625,323.4926,4.6378e-06,-2.15e-06,0.0,0 STARLINK-3781,1 52272U 22041M   22346.49959248 -.00000215  00000-0  46378-5 0  9996,2 52272  53.2181  20.6807 0002703  36.6250 323.4926 15.08839484 35745,6917.882,95.438,541.617,537.877,0.0
52272.0,STARLINK-3781,PAYLOAD,2022-12-12 13:34:47,15.08839117,0.0002735,53.2179,20.383,35.3352,324.7821,4.700100000000001e-07,-2.81e-06,0.0,0 STARLINK-3781,1 52272U 22041M   22346.56583261 -.00000281  00000-0  47001-6 0  9990,2 52272  53.2179  20.3830 0002735  35.3352 324.7821 15.08839117 36976,6917.8830000000025,95.438,541.64,537.856,0.0
52272.0,STARLINK-3781,PAYLOAD,2022-12-13 02:17:52,15.08854236,0.0002573,53.2187,18.004,36.6382,323.4786,0.00022378,3.276e-05,0.0,0 STARLINK-3781,1 52272U 22041M   22347.09574429  .00003276  00000-0  22378-3 0  9998,2 52272  53.2187  18.0040 0002573  36.6382 323.4786 15.08854236 37054,6917.837,95.437,541.482,537.922,0.0
52272.0,STARLINK-3781,PAYLOAD,2022-12-13 08:39:25,15.08845245,0.0002359,53.2175,16.8123,28.8309,331.2813,5.2096e-05,5.41e-06,0.0,0 STARLINK-3781,1 52272U 22041M   22347.36070716  .00000541  00000-0  52096-4 0  9991,2 52272  53.2175  16.8123 0002359  28.8309 331.2813 15.08845245 37095,6917.864000000001,95.437,541.361,538.097,0.0
52272.0,STARLINK-3781,PAYLOAD,2022-12-13 11:50:11,15.08844824,0.0002361,53.2174,16.2172,31.3793,328.7340000000001,3.6959e-05,3e-06,0.0,0 STARLINK-3781,1 52272U 22041M   22347.49318693  .00000300  00000-0  36959-4 0  9997,2 52272  53.2174  16.2172 0002361  31.3793 328.7340 15.08844824 35895,6917.866,95.437,541.364,538.097,0.0
52272.0,STARLINK-3781,PAYLOAD,2022-12-13 13:25:34,15.08844098,0.0002466,53.2181,15.9213,34.0412,326.0738,3.2488000000000005e-05,2.29e-06,0.0,0 STARLINK-3781,1 52272U 22041M   22347.55942612  .00000229  00000-0  32488-4 0  9991,2 52272  53.2181  15.9213 0002466  34.0412 326.0738 15.08844098 35906,6917.868,95.437,541.439,538.0269999999998,0.0
52272.0,STARLINK-3781,PAYLOAD,2022-12-14 11:40:58,15.08845277,0.0002399,53.2188,11.758,36.4162,323.6993,2.18e-05,5.9e-07,0.0,0 STARLINK-3781,1 52272U 22041M   22348.48678384  .00000059  00000-0  21800-4 0  9993,2 52272  53.2188  11.7580 0002399  36.4162 323.6993 15.08845277 36049,6917.864000000001,95.437,541.389,538.07,0.0
